{"fetched_at":"2026-03-30T13:17:50Z","count":15418,"tles":[{"name":"STARLINK-33618","line1":"1 63374U 25063M   26087.93846830  .00015445  00000+0  53247-3 0  9995","line2":"2 63374  53.1590 320.4194 0001348 103.7160 256.3991 15.30202630 57745","category":"Starlink"}]}