{
  "norad_id": 63374,
  "name": "STARLINK-33618",
  "history": [
    {
      "epoch": "2026-03-28T22:31:23.661120",
      "apogee_km": 476.1310475250475,
      "perigee_km": 474.28338592421824,
      "latitude_deg": -11.162360403554795,
      "longitude_deg": -112.50704320007935,
      "semi_major_axis_km": 6853.344216724632,
      "eccentricity": 0.0001348,
      "inclination_deg": 53.159,
      "raan_deg": 320.4194,
      "arg_perigee_deg": 103.716,
      "mean_anomaly_deg": 256.3991,
      "mean_motion_rev_day": 15.3020263
    }
  ]
}